SL-3 R/B                
1 13154U 82039B   25314.88535439  .00003361  00000+0  20720-3 0  9992
2 13154  81.1798 352.7242 0032319 356.6414   3.4588 15.09258179363717
SL-3 R/B                
1 13403U 82079B   25314.88883910  .00006618  00000+0  27732-3 0  9991
2 13403  81.1467 333.1959 0025093 204.4148 155.5898 15.23080926359605
SL-14 R/B               
1 13553U 82092B   25314.83451102  .00001113  00000+0  12279-3 0  9996
2 13553  82.5678 252.5474 0019881 340.1243  42.3194 14.86500064311279
SL-3 R/B                
1 13819U 83010B   25314.02007420  .00014167  00000+0  32675-3 0  9998
2 13819  81.1029 148.5217 0018390 102.2816 258.0487 15.42255640339478
SL-3 R/B                
1 14208U 83075B   25314.92420432  .00015064  00000+0  43973-3 0  9993
2 14208  97.6109 310.3616 0021343 296.7167  63.1891 15.35203599311915
COSMOS 1536             
1 14699U 84013A   25314.26805282  .00009095  00000+0  39645-3 0  9995
2 14699  82.5466 226.3492 0015025 350.9095   9.1866 15.21943520254445
SL-14 R/B               
1 14820U 84027B   25314.83689332  .00000726  00000+0  80445-4 0  9992
2 14820  82.5429 356.4749 0018257  12.1537 348.0116 14.85824375229987
SL-8 R/B                
1 15483U 85006B   25314.73453383  .00000394  00000+0  13948-3 0  9994
2 15483  74.0433 120.0171 0017549  62.6711 314.3743 14.37690472136935
SL-12 R/B(2)            
1 15772U 85042D   25314.82995225  .00000124  00000+0  77289-4 0  9991
2 15772  71.1086 338.8351 0037167 308.2567 224.6774 14.21936176 97494
SL-14 R/B               
1 15945U 85069B   25314.92494569  .00000833  00000+0  91811-4 0  9992
2 15945  82.5245 136.6140 0017756 222.5728 137.4113 14.86266107155199
SL-16 R/B               
1 16182U 85097B   25314.49947319 -.00000133  00000+0 -42715-4 0  9999
2 16182  71.0047  31.4771 0005185  72.4196 299.7473 14.16575857 70355
SL-14 R/B               
1 16496U 86006B   25314.59419194  .00001087  00000+0  11373-3 0  9996
2 16496  82.5292  11.7955 0075560 308.2205  51.2225 14.86604470131515
