CCSDS_OMM_VERS = 2.0
CREATION_DATE  = 
ORIGINATOR     = 

OBJECT_NAME    = SL-3 R/B
OBJECT_ID      = 1982-039B
CENTER_NAME    = EARTH
REF_FRAME      = TEME
TIME_SYSTEM    = UTC
MEAN_ELEMENT_THEORY = SGP/SGP4

EPOCH          = 2025-11-10T21:14:54.619296
MEAN_MOTION    = 15.09258179
ECCENTRICITY   = .00323195
INCLINATION    = 81.1798
RA_OF_ASC_NODE = 352.7242
ARG_OF_PERICENTER = 356.6414
MEAN_ANOMALY   = 3.4588

EPHEMERIS_TYPE = 0
CLASSIFICATION_TYPE = U
NORAD_CAT_ID   = 13154
ELEMENT_SET_NO = 999
REV_AT_EPOCH   = 36371
BSTAR          = .20719864E-3
MEAN_MOTION_DOT = .3361E-4
MEAN_MOTION_DDOT = 0

CCSDS_OMM_VERS = 2.0
CREATION_DATE  = 
ORIGINATOR     = 

OBJECT_NAME    = SL-3 R/B
OBJECT_ID      = 1982-079B
CENTER_NAME    = EARTH
REF_FRAME      = TEME
TIME_SYSTEM    = UTC
MEAN_ELEMENT_THEORY = SGP/SGP4

EPOCH          = 2025-11-10T21:19:55.698240
MEAN_MOTION    = 15.23080926
ECCENTRICITY   = .00250935
INCLINATION    = 81.1467
RA_OF_ASC_NODE = 333.1959
ARG_OF_PERICENTER = 204.4148
MEAN_ANOMALY   = 155.5898

EPHEMERIS_TYPE = 0
CLASSIFICATION_TYPE = U
NORAD_CAT_ID   = 13403
ELEMENT_SET_NO = 999
REV_AT_EPOCH   = 35960
BSTAR          = .27732269E-3
MEAN_MOTION_DOT = .6618E-4
MEAN_MOTION_DDOT = 0

CCSDS_OMM_VERS = 2.0
CREATION_DATE  = 
ORIGINATOR     = 

OBJECT_NAME    = SL-14 R/B
OBJECT_ID      = 1982-092B
CENTER_NAME    = EARTH
REF_FRAME      = TEME
TIME_SYSTEM    = UTC
MEAN_ELEMENT_THEORY = SGP/SGP4

EPOCH          = 2025-11-10T20:01:41.752128
MEAN_MOTION    = 14.86500064
ECCENTRICITY   = .00198813
INCLINATION    = 82.5678
RA_OF_ASC_NODE = 252.5474
ARG_OF_PERICENTER = 340.1243
MEAN_ANOMALY   = 42.3194

EPHEMERIS_TYPE = 0
CLASSIFICATION_TYPE = U
NORAD_CAT_ID   = 13553
ELEMENT_SET_NO = 999
REV_AT_EPOCH   = 31127
BSTAR          = .12278505E-3
MEAN_MOTION_DOT = .1113E-4
MEAN_MOTION_DDOT = 0

CCSDS_OMM_VERS = 2.0
CREATION_DATE  = 
ORIGINATOR     = 

OBJECT_NAME    = SL-3 R/B
OBJECT_ID      = 1983-010B
CENTER_NAME    = EARTH
REF_FRAME      = TEME
TIME_SYSTEM    = UTC
MEAN_ELEMENT_THEORY = SGP/SGP4

EPOCH          = 2025-11-10T00:28:54.410880
MEAN_MOTION    = 15.42255640
ECCENTRICITY   = .00183902
INCLINATION    = 81.1029
RA_OF_ASC_NODE = 148.5217
ARG_OF_PERICENTER = 102.2816
MEAN_ANOMALY   = 258.0487

EPHEMERIS_TYPE = 0
CLASSIFICATION_TYPE = U
NORAD_CAT_ID   = 13819
ELEMENT_SET_NO = 999
REV_AT_EPOCH   = 33947
BSTAR          = .32675476E-3
MEAN_MOTION_DOT = .14167E-3
MEAN_MOTION_DDOT = 0

CCSDS_OMM_VERS = 2.0
CREATION_DATE  = 
ORIGINATOR     = 

OBJECT_NAME    = SL-3 R/B
OBJECT_ID      = 1983-075B
CENTER_NAME    = EARTH
REF_FRAME      = TEME
TIME_SYSTEM    = UTC
MEAN_ELEMENT_THEORY = SGP/SGP4

EPOCH          = 2025-11-10T22:10:51.253248
MEAN_MOTION    = 15.35203599
ECCENTRICITY   = .00213431
INCLINATION    = 97.6109
RA_OF_ASC_NODE = 310.3616
ARG_OF_PERICENTER = 296.7167
MEAN_ANOMALY   = 63.1891

EPHEMERIS_TYPE = 0
CLASSIFICATION_TYPE = U
NORAD_CAT_ID   = 14208
ELEMENT_SET_NO = 999
REV_AT_EPOCH   = 31191
BSTAR          = .43972692E-3
MEAN_MOTION_DOT = .15064E-3
MEAN_MOTION_DDOT = 0

CCSDS_OMM_VERS = 2.0
CREATION_DATE  = 
ORIGINATOR     = 

OBJECT_NAME    = COSMOS 1536
OBJECT_ID      = 1984-013A
CENTER_NAME    = EARTH
REF_FRAME      = TEME
TIME_SYSTEM    = UTC
MEAN_ELEMENT_THEORY = SGP/SGP4

EPOCH          = 2025-11-10T06:25:59.763648
MEAN_MOTION    = 15.21943520
ECCENTRICITY   = .00150251
INCLINATION    = 82.5466
RA_OF_ASC_NODE = 226.3492
ARG_OF_PERICENTER = 350.9095
MEAN_ANOMALY   = 9.1866

EPHEMERIS_TYPE = 0
CLASSIFICATION_TYPE = U
NORAD_CAT_ID   = 14699
ELEMENT_SET_NO = 999
REV_AT_EPOCH   = 25444
BSTAR          = .39644584E-3
MEAN_MOTION_DOT = .9095E-4
MEAN_MOTION_DDOT = 0

CCSDS_OMM_VERS = 2.0
CREATION_DATE  = 
ORIGINATOR     = 

OBJECT_NAME    = SL-14 R/B
OBJECT_ID      = 1984-027B
CENTER_NAME    = EARTH
REF_FRAME      = TEME
TIME_SYSTEM    = UTC
MEAN_ELEMENT_THEORY = SGP/SGP4

EPOCH          = 2025-11-10T20:05:07.582848
MEAN_MOTION    = 14.85824375
ECCENTRICITY   = .00182576
INCLINATION    = 82.5429
RA_OF_ASC_NODE = 356.4749
ARG_OF_PERICENTER = 12.1537
MEAN_ANOMALY   = 348.0116

EPHEMERIS_TYPE = 0
CLASSIFICATION_TYPE = U
NORAD_CAT_ID   = 14820
ELEMENT_SET_NO = 999
REV_AT_EPOCH   = 22998
BSTAR          = .80444912E-4
MEAN_MOTION_DOT = .726E-5
MEAN_MOTION_DDOT = 0

CCSDS_OMM_VERS = 2.0
CREATION_DATE  = 
ORIGINATOR     = 

OBJECT_NAME    = SL-8 R/B
OBJECT_ID      = 1985-006B
CENTER_NAME    = EARTH
REF_FRAME      = TEME
TIME_SYSTEM    = UTC
MEAN_ELEMENT_THEORY = SGP/SGP4

EPOCH          = 2025-11-10T17:37:43.722912
MEAN_MOTION    = 14.37690472
ECCENTRICITY   = .00175498
INCLINATION    = 74.0433
RA_OF_ASC_NODE = 120.0171
ARG_OF_PERICENTER = 62.6711
MEAN_ANOMALY   = 314.3743

EPHEMERIS_TYPE = 0
CLASSIFICATION_TYPE = U
NORAD_CAT_ID   = 15483
ELEMENT_SET_NO = 999
REV_AT_EPOCH   = 13693
BSTAR          = .13947862E-3
MEAN_MOTION_DOT = .394E-5
MEAN_MOTION_DDOT = 0

CCSDS_OMM_VERS = 2.0
CREATION_DATE  = 
ORIGINATOR     = 

OBJECT_NAME    = SL-12 R/B(2)
OBJECT_ID      = 1985-042D
CENTER_NAME    = EARTH
REF_FRAME      = TEME
TIME_SYSTEM    = UTC
MEAN_ELEMENT_THEORY = SGP/SGP4

EPOCH          = 2025-11-10T19:55:07.874400
MEAN_MOTION    = 14.21936176
ECCENTRICITY   = .0037167
INCLINATION    = 71.1086
RA_OF_ASC_NODE = 338.8351
ARG_OF_PERICENTER = 308.2567
MEAN_ANOMALY   = 224.6774

EPHEMERIS_TYPE = 0
CLASSIFICATION_TYPE = U
NORAD_CAT_ID   = 15772
ELEMENT_SET_NO = 999
REV_AT_EPOCH   = 9749
BSTAR          = .77289115E-4
MEAN_MOTION_DOT = .124E-5
MEAN_MOTION_DDOT = 0

CCSDS_OMM_VERS = 2.0
CREATION_DATE  = 
ORIGINATOR     = 

OBJECT_NAME    = SL-14 R/B
OBJECT_ID      = 1985-069B
CENTER_NAME    = EARTH
REF_FRAME      = TEME
TIME_SYSTEM    = UTC
MEAN_ELEMENT_THEORY = SGP/SGP4

EPOCH          = 2025-11-10T22:11:55.307616
MEAN_MOTION    = 14.86266107
ECCENTRICITY   = .00177561
INCLINATION    = 82.5245
RA_OF_ASC_NODE = 136.6140
ARG_OF_PERICENTER = 222.5728
MEAN_ANOMALY   = 137.4113

EPHEMERIS_TYPE = 0
CLASSIFICATION_TYPE = U
NORAD_CAT_ID   = 15945
ELEMENT_SET_NO = 999
REV_AT_EPOCH   = 15519
BSTAR          = .918105E-4
MEAN_MOTION_DOT = .833E-5
MEAN_MOTION_DDOT = 0

CCSDS_OMM_VERS = 2.0
CREATION_DATE  = 
ORIGINATOR     = 

OBJECT_NAME    = SL-16 R/B
OBJECT_ID      = 1985-097B
CENTER_NAME    = EARTH
REF_FRAME      = TEME
TIME_SYSTEM    = UTC
MEAN_ELEMENT_THEORY = SGP/SGP4

EPOCH          = 2025-11-10T11:59:14.483616
MEAN_MOTION    = 14.16575857
ECCENTRICITY   = .00051855
INCLINATION    = 71.0047
RA_OF_ASC_NODE = 31.4771
ARG_OF_PERICENTER = 72.4196
MEAN_ANOMALY   = 299.7473

EPHEMERIS_TYPE = 0
CLASSIFICATION_TYPE = U
NORAD_CAT_ID   = 16182
ELEMENT_SET_NO = 999
REV_AT_EPOCH   = 7035
BSTAR          = -.42715136E-4
MEAN_MOTION_DOT = -.133E-5
MEAN_MOTION_DDOT = 0

CCSDS_OMM_VERS = 2.0
CREATION_DATE  = 
ORIGINATOR     = 

OBJECT_NAME    = SL-14 R/B
OBJECT_ID      = 1986-006B
CENTER_NAME    = EARTH
REF_FRAME      = TEME
TIME_SYSTEM    = UTC
MEAN_ELEMENT_THEORY = SGP/SGP4

EPOCH          = 2025-11-10T14:15:38.183616
MEAN_MOTION    = 14.86604470
ECCENTRICITY   = .00755604
INCLINATION    = 82.5292
RA_OF_ASC_NODE = 11.7955
ARG_OF_PERICENTER = 308.2205
MEAN_ANOMALY   = 51.2225

EPHEMERIS_TYPE = 0
CLASSIFICATION_TYPE = U
NORAD_CAT_ID   = 16496
ELEMENT_SET_NO = 999
REV_AT_EPOCH   = 13151
BSTAR          = .11373461E-3
MEAN_MOTION_DOT = .1087E-4
MEAN_MOTION_DDOT = 0

